[{"OBJECT_NAME":"RISING 2","OBJECT_ID":"2014-029D","EPOCH":"2026-03-09T22:49:58.395648","MEAN_MOTION":14.97431818,"ECCENTRICITY":0.00015683,"INCLINATION":97.6622,"RA_OF_ASC_NODE":139.362,"ARG_OF_PERICENTER":264.4485,"MEAN_ANOMALY":95.6558,"EPHEMERIS_TYPE":0,"CLASSIFICATION_TYPE":"U","NORAD_CAT_ID":39769,"ELEMENT_SET_NO":999,"REV_AT_EPOCH":63869,"BSTAR":0.00068568934,"MEAN_MOTION_DOT":7.926e-5,"MEAN_MOTION_DDOT":0},{"OBJECT_NAME":"STARLINK-36156","OBJECT_ID":"2025-293D","EPOCH":"2026-03-09T11:40:19.435584","MEAN_MOTION":14.9835049,"ECCENTRICITY":0.00040142,"INCLINATION":70,"RA_OF_ASC_NODE":95.1201,"ARG_OF_PERICENTER":266.14,"MEAN_ANOMALY":93.93,"EPHEMERIS_TYPE":0,"CLASSIFICATION_TYPE":"U","NORAD_CAT_ID":67006,"ELEMENT_SET_NO":999,"REV_AT_EPOCH":1485,"BSTAR":0.00030061031,"MEAN_MOTION_DOT":3.498e-5,"MEAN_MOTION_DDOT":0}]
